ORBCOMM FM115           
1 41186U 15081H   25293.05965455  .00001431  00000+0  31200-3 0  9992
2 41186  46.9974 165.5632 0001294 277.2442  82.8299 14.62760117526054
ORBCOMM FM108           
1 41187U 15081J   25293.21066105  .00001878  00000+0  43744-3 0  9996
2 41187  47.0047 236.4458 0001969 186.7331 173.3529 14.58414167525048
ORBCOMM FM117           
1 41188U 15081K   25293.10844900  .00001825  00000+0  42614-3 0  9999
2 41188  47.0006 235.6499 0002648 194.9079 165.1729 14.58415704525077
ORBCOMM FM116           
1 41189U 15081L   25292.81719902  .00001675  00000+0  39356-3 0  9992
2 41189  47.0030 326.8202 0001833 339.7918  20.2895 14.58492371523849
